start=new Date('2023-04-05T00:00:00.000Z').valueOf();
sats=[{"RCS_SIZE":"LARGE","REF_FRAME":"TEME","LAUNCH_DATE":"2021-02-04","PERIOD":"95.594","TLE_LINE1":"1 47557U 21009K   23094.55929699  .00023080  00000-0  15645-2 0  9998","COUNTRY_CODE":"US","OBJECT_TYPE":"PAYLOAD","ELEMENT_SET_NO":"999","SITE":"AFETR","ECCENTRICITY":"0.00013060","CENTER_NAME":"EARTH","EPOCH":"2023-04-04T13:25:23.259936","SEMIMAJOR_AXIS":"6925.436","MEAN_MOTION_DDOT":"0.0000000000000","NORAD_CAT_ID":"47557","OBJECT_ID":"2021-009K","MEAN_MOTION":"15.06371442","PERIAPSIS":"546.397","OBJECT_NAME":"STARLINK-1956","APOAPSIS":"548.206","MEAN_MOTION_DOT":"0.00023080","RA_OF_ASC_NODE":"165.6217","FILE":"3879974","MEAN_ANOMALY":"247.8265","ARG_OF_PERICENTER":"112.2862","INCLINATION":"53.0546","CLASSIFICATION_TYPE":"U","MEAN_ELEMENT_THEORY":"SGP4","TLE_LINE2":"2 47557  53.0546 165.6217 0001306 112.2862 247.8265 15.06371442119225","BSTAR":"0.00156450000000","TIME_SYSTEM":"UTC","GP_ID":"229464649","DECAY_DATE":null,"REV_AT_EPOCH":"11922","EPHEMERIS_TYPE":"0"},{"CLASSIFICATION_TYPE":"U","INCLINATION":"53.0509","TLE_LINE2":"2 47558  53.0509 136.5986 0001340  85.6301 274.4840 15.06394597119607","MEAN_ELEMENT_THEORY":"SGP4","BSTAR":"-0.00028285000000","GP_ID":"229463397","TIME_SYSTEM":"UTC","DECAY_DATE":null,"EPHEMERIS_TYPE":"0","REV_AT_EPOCH":"11960","MEAN_MOTION":"15.06394597","OBJECT_NAME":"STARLINK-1957","PERIAPSIS":"546.302","APOAPSIS":"548.158","RA_OF_ASC_NODE":"136.5986","MEAN_MOTION_DOT":"-0.00004491","FILE":"3879974","MEAN_ANOMALY":"274.4840","ARG_OF_PERICENTER":"85.6301","EPOCH":"2023-04-04T08:10:53.756544","CENTER_NAME":"EARTH","ECCENTRICITY":"0.00013400","MEAN_MOTION_DDOT":"0.0000000000000","SEMIMAJOR_AXIS":"6925.365","NORAD_CAT_ID":"47558","OBJECT_ID":"2021-009L","REF_FRAME":"TEME","RCS_SIZE":"LARGE","LAUNCH_DATE":"2021-02-04","TLE_LINE1":"1 47558U 21009L   23094.34089996 -.00004491  00000-0 -28285-3 0  9995","PERIOD":"95.592","COUNTRY_CODE":"US","ELEMENT_SET_NO":"999","OBJECT_TYPE":"PAYLOAD","SITE":"AFETR"},{"NORAD_CAT_ID":"47559","EPOCH":"2023-04-04T08:54:41.158080","CENTER_NAME":"EARTH","ECCENTRICITY":"0.00016280","MEAN_MOTION_DDOT":"0.0000000000000","SEMIMAJOR_AXIS":"6925.359","OBJECT_ID":"2021-009M","TLE_LINE1":"1 47559U 21009M   23094.37130970 -.00000857  00000-0 -38654-4 0  9992","PERIOD":"95.592","REF_FRAME":"TEME","RCS_SIZE":"LARGE","LAUNCH_DATE":"2021-02-04","ELEMENT_SET_NO":"999","OBJECT_TYPE":"PAYLOAD","SITE":"AFETR","COUNTRY_CODE":"US","BSTAR":"-0.00003865400000","TIME_SYSTEM":"UTC","GP_ID":"229463147","CLASSIFICATION_TYPE":"U","INCLINATION":"53.0528","TLE_LINE2":"2 47559  53.0528 126.4636 0001628  88.8294 271.2882 15.06396590119756","MEAN_ELEMENT_THEORY":"SGP4","REV_AT_EPOCH":"11975","EPHEMERIS_TYPE":"0","DECAY_DATE":null,"OBJECT_NAME":"STARLINK-1958","PERIAPSIS":"546.097","APOAPSIS":"548.351","MEAN_MOTION":"15.06396590","FILE":"3879974","ARG_OF_PERICENTER":"88.8294","MEAN_ANOMALY":"271.2882","RA_OF_ASC_NODE":"126.4636","MEAN_MOTION_DOT":"-0.00000857"},{"SEMIMAJOR_AXIS":"6925.396","MEAN_MOTION_DDOT":"0.0000000000000","ECCENTRICITY":"0.00015590","CENTER_NAME":"EARTH","EPOCH":"2023-04-04T08:42:42.159744","NORAD_CAT_ID":"47560","OBJECT_ID":"2021-009N","LAUNCH_DATE":"2021-02-04","RCS_SIZE":"LARGE","REF_FRAME":"TEME","PERIOD":"95.593","TLE_LINE1":"1 47560U 21009N   23094.36298796  .00021159  00000-0  14357-2 0  9992","COUNTRY_CODE":"US","SITE":"AFETR","OBJECT_TYPE":"PAYLOAD","ELEMENT_SET_NO":"999","TLE_LINE2":"2 47560  53.0543 126.4948 0001559  70.2608 289.8549 15.06384497119756","MEAN_ELEMENT_THEORY":"SGP4","INCLINATION":"53.0543","CLASSIFICATION_TYPE":"U","TIME_SYSTEM":"UTC","GP_ID":"229464399","BSTAR":"0.00143570000000","DECAY_DATE":null,"REV_AT_EPOCH":"11975","EPHEMERIS_TYPE":"0","MEAN_MOTION":"15.06384497","APOAPSIS":"548.341","PERIAPSIS":"546.181","OBJECT_NAME":"STARLINK-1959","MEAN_MOTION_DOT":"0.00021159","RA_OF_ASC_NODE":"126.4948","MEAN_ANOMALY":"289.8549","ARG_OF_PERICENTER":"70.2608","FILE":"3879974"},{"SITE":"AFETR","ELEMENT_SET_NO":"999","OBJECT_TYPE":"PAYLOAD","COUNTRY_CODE":"US","TLE_LINE1":"1 47561U 21009P   23094.41738510  .00024611  00000-0  16662-2 0  9999","PERIOD":"95.593","LAUNCH_DATE":"2021-02-04","REF_FRAME":"TEME","RCS_SIZE":"LARGE","OBJECT_ID":"2021-009P","NORAD_CAT_ID":"47561","MEAN_MOTION_DDOT":"0.0000000000000","SEMIMAJOR_AXIS":"6925.407","CENTER_NAME":"EARTH","EPOCH":"2023-04-04T10:01:02.072640","ECCENTRICITY":"0.00009160","ARG_OF_PERICENTER":"95.7029","MEAN_ANOMALY":"264.4065","FILE":"3879974","RA_OF_ASC_NODE":"146.2573","MEAN_MOTION_DOT":"0.00024611","APOAPSIS":"547.906","OBJECT_NAME":"STARLINK-1960","PERIAPSIS":"546.637","MEAN_MOTION":"15.06381021","EPHEMERIS_TYPE":"0","REV_AT_EPOCH":"11948","DECAY_DATE":null,"GP_ID":"229464149","TIME_SYSTEM":"UTC","BSTAR":"0.00166620000000","TLE_LINE2":"2 47561  53.0528 146.2573 0000916  95.7029 264.4065 15.06381021119481","MEAN_ELEMENT_THEORY":"SGP4","CLASSIFICATION_TYPE":"U","INCLINATION":"53.0528"},{"TIME_SYSTEM":"UTC","GP_ID":"229495256","BSTAR":"0.00105930000000","MEAN_ELEMENT_THEORY":"SGP4","TLE_LINE2":"2 47562  53.0527 145.2958 0001393  79.5532 280.5614 15.06383486119516","INCLINATION":"53.0527","CLASSIFICATION_TYPE":"U","EPHEMERIS_TYPE":"0","REV_AT_EPOCH":"11951","DECAY_DATE":null,"APOAPSIS":"548.229","OBJECT_NAME":"STARLINK-1961","PERIAPSIS":"546.299","MEAN_MOTION":"15.06383486","MEAN_ANOMALY":"280.5614","ARG_OF_PERICENTER":"79.5532","FILE":"3880211","MEAN_MOTION_DOT":"0.00015525","RA_OF_ASC_NODE":"145.2958","NORAD_CAT_ID":"47562","SEMIMAJOR_AXIS":"6925.399","MEAN_MOTION_DDOT":"0.0000000000000","ECCENTRICITY":"0.00013930","EPOCH":"2023-04-04T15:08:53.254752","CENTER_NAME":"EARTH","OBJECT_ID":"2021-009Q","PERIOD":"95.593","TLE_LINE1":"1 47562U 21009Q   23094.63117193  .00015525  00000-0  10593-2 0  9993","LAUNCH_DATE":"2021-02-04","RCS_SIZE":"LARGE","REF_FRAME":"TEME","SITE":"AFETR","OBJECT_TYPE":"PAYLOAD","ELEMENT_SET_NO":"999","COUNTRY_CODE":"US"},{"EPHEMERIS_TYPE":"0","REV_AT_EPOCH":"11947","DECAY_DATE":null,"GP_ID":"229463648","TIME_SYSTEM":"UTC","BSTAR":"0.00166290000000","MEAN_ELEMENT_THEORY":"SGP4","TLE_LINE2":"2 47563  53.0524 146.3909 0001044 102.6014 257.5092 15.06386305119470","INCLINATION":"53.0524","CLASSIFICATION_TYPE":"U","MEAN_ANOMALY":"257.5092","ARG_OF_PERICENTER":"102.6014","FILE":"3879974","MEAN_MOTION_DOT":"0.00024565","RA_OF_ASC_NODE":"146.3909","APOAPSIS":"547.979","OBJECT_NAME":"STARLINK-1962","PERIAPSIS":"546.533","MEAN_MOTION":"15.06386305","OBJECT_ID":"2021-009R","NORAD_CAT_ID":"47563","SEMIMAJOR_AXIS":"6925.391","MEAN_MOTION_DDOT":"0.0000000000000","ECCENTRICITY":"0.00010440","EPOCH":"2023-04-04T09:18:34.070976","CENTER_NAME":"EARTH","SITE":"AFETR","OBJECT_TYPE":"PAYLOAD","ELEMENT_SET_NO":"999","COUNTRY_CODE":"US","PERIOD":"95.593","TLE_LINE1":"1 47563U 21009R   23094.38789434  .00024565  00000-0  16629-2 0  9999","LAUNCH_DATE":"2021-02-04","RCS_SIZE":"LARGE","REF_FRAME":"TEME"},{"OBJECT_ID":"2021-009S","MEAN_MOTION_DDOT":"0.0000000000000","SEMIMAJOR_AXIS":"6925.379","CENTER_NAME":"EARTH","EPOCH":"2023-04-04T12:30:58.645440","ECCENTRICITY":"0.00019980","NORAD_CAT_ID":"47564","COUNTRY_CODE":"US","SITE":"AFETR","ELEMENT_SET_NO":"999","OBJECT_TYPE":"PAYLOAD","LAUNCH_DATE":"2021-02-04","REF_FRAME":"TEME","RCS_SIZE":"LARGE","TLE_LINE1":"1 47564U 21009S   23094.52151210  .00022826  00000-0  15467-2 0  9998","PERIOD":"95.593","DECAY_DATE":null,"REV_AT_EPOCH":"11963","EPHEMERIS_TYPE":"0","MEAN_ELEMENT_THEORY":"SGP4","TLE_LINE2":"2 47564  53.0515 135.7892 0001998  78.0505 282.0707 15.06389958119634","CLASSIFICATION_TYPE":"U","INCLINATION":"53.0515","GP_ID":"229463899","TIME_SYSTEM":"UTC","BSTAR":"0.00154670000000","RA_OF_ASC_NODE":"135.7892","MEAN_MOTION_DOT":"0.00022826","ARG_OF_PERICENTER":"78.0505","MEAN_ANOMALY":"282.0707","FILE":"3879974","MEAN_MOTION":"15.06389958","APOAPSIS":"548.628","OBJECT_NAME":"STARLINK-1963","PERIAPSIS":"545.861"},{"NORAD_CAT_ID":"47565","ECCENTRICITY":"0.00013910","CENTER_NAME":"EARTH","EPOCH":"2023-04-04T14:01:13.217664","SEMIMAJOR_AXIS":"6925.348","MEAN_MOTION_DDOT":"0.0000000000000","OBJECT_ID":"2021-009T","PERIOD":"95.592","TLE_LINE1":"1 47565U 21009T   23094.58418076  .00007221  00000-0  50315-3 0  9995","RCS_SIZE":"LARGE","REF_FRAME":"TEME","LAUNCH_DATE":"2021-02-04","OBJECT_TYPE":"PAYLOAD","ELEMENT_SET_NO":"999","SITE":"AFETR","COUNTRY_CODE":"US","BSTAR":"0.00050315000000","GP_ID":"229495008","TIME_SYSTEM":"UTC","CLASSIFICATION_TYPE":"U","INCLINATION":"53.0526","TLE_LINE2":"2 47565  53.0526 135.5092 0001391  87.4120 272.7029 15.06400049119640","MEAN_ELEMENT_THEORY":"SGP4","EPHEMERIS_TYPE":"0","REV_AT_EPOCH":"11964","DECAY_DATE":null,"OBJECT_NAME":"STARLINK-1964","PERIAPSIS":"546.250","APOAPSIS":"548.177","MEAN_MOTION":"15.06400049","FILE":"3880211","MEAN_ANOMALY":"272.7029","ARG_OF_PERICENTER":"87.4120","MEAN_MOTION_DOT":"0.00007221","RA_OF_ASC_NODE":"135.5092"},{"OBJECT_ID":"2021-009U","ECCENTRICITY":"0.00013370","EPOCH":"2023-04-04T09:05:18.165408","CENTER_NAME":"EARTH","SEMIMAJOR_AXIS":"6925.315","MEAN_MOTION_DDOT":"0.0000000000000","NORAD_CAT_ID":"47566","COUNTRY_CODE":"US","OBJECT_TYPE":"PAYLOAD","ELEMENT_SET_NO":"999","SITE":"AFETR","RCS_SIZE":"LARGE","REF_FRAME":"TEME","LAUNCH_DATE":"2021-02-04","PERIOD":"95.591","TLE_LINE1":"1 47566U 21009U   23094.37868247  .00007070  00000-0  49289-3 0  9992","DECAY_DATE":null,"EPHEMERIS_TYPE":"0","REV_AT_EPOCH":"11975","INCLINATION":"53.0527","CLASSIFICATION_TYPE":"U","TLE_LINE2":"2 47566  53.0527 126.4282 0001337  98.1541 261.9599 15.06411035119759","MEAN_ELEMENT_THEORY":"SGP4","BSTAR":"0.00049289000000","TIME_SYSTEM":"UTC","GP_ID":"229463398","MEAN_MOTION_DOT":"0.00007070","RA_OF_ASC_NODE":"126.4282","FILE":"3879974","ARG_OF_PERICENTER":"98.1541","MEAN_ANOMALY":"261.9599","MEAN_MOTION":"15.06411035","PERIAPSIS":"546.254","OBJECT_NAME":"STARLINK-1965","APOAPSIS":"548.106"}];
